[2010tk7]
absolute_magnitude=20.8
albedo=0.059
coord_func=comet_orbit
name=2010 TK7
orbit_ArgOfPericenter=45.941400000000002
orbit_AscendingNode=96.488020000000006
orbit_Eccentricity=0.1905231
orbit_Epoch=2457800.5
orbit_Inclination=20.891349999999999
orbit_MeanAnomaly=28.581219999999998
orbit_MeanMotion=0.98622452000000005
orbit_SemiMajorAxis=0.999583
orbit_visualization_period=365.0763426626145
radius=1
slope_parameter=0.14999999999999999
tex_map=nomap.png
type=asteroid

[2013lx28]
absolute_magnitude=21.800000000000001
albedo=0.14999999999999999
coord_func=comet_orbit
name=2013 LX28
orbit_ArgOfPericenter=345.77341000000001
orbit_AscendingNode=76.676479999999998
orbit_Eccentricity=0.45203690000000002
orbit_Epoch=2457800.5
orbit_Inclination=49.975270000000002
orbit_MeanAnomaly=94.765770000000003
orbit_MeanMotion=0.98320426999999999
orbit_SemiMajorAxis=1.0016290000000001
radius=1
slope_parameter=0.14999999999999999
tex_map=nomap.png
type=asteroid

[2089962003az84]
absolute_magnitude=3.8
albedo=0.15
coord_func=comet_orbit
minor_planet_number=208996
name=2003 AZ84
orbit_ArgOfPericenter=13.96776
orbit_AscendingNode=252.13033999999999
orbit_Eccentricity=0.17904100000000001
orbit_Epoch=2457800.5
orbit_Inclination=13.5829
orbit_MeanAnomaly=230.81236999999999
orbit_MeanMotion=0.0039613599999999997
orbit_SemiMajorAxis=39.5585022
orbit_visualization_period=90980.99828561733
radius=597
slope_parameter=0.15
tex_map=nomap.png
type=plutino

[218bianca]
absolute_magnitude=8.6
albedo=0.1746
color_index_bv=0.859
spec_t=S
coord_func=comet_orbit
minor_planet_number=218
name=Bianca
orbit_ArgOfPericenter=62.9836
orbit_AscendingNode=170.6431
orbit_Eccentricity=0.11645
orbit_Epoch=2456800.5
orbit_Inclination=15.1996
orbit_MeanAnomaly=349.1634
orbit_MeanMotion=0.2263061
orbit_SemiMajorAxis=2.666891
radius=66
slope_parameter=0.32
tex_map=nomap.png
type=asteroid

[2250882007or10]
absolute_magnitude=1.8
albedo=0.19
coord_func=comet_orbit
lighting=true
minor_planet_number=225088
name=2007 OR10
orbit_ArgOfPericenter=207.05238
orbit_AscendingNode=336.82029
orbit_Eccentricity=0.50649040000000001
orbit_Epoch=2457800.5
orbit_Inclination=30.903849999999998
orbit_MeanAnomaly=104.40425
orbit_MeanMotion=0.0017947
orbit_SemiMajorAxis=67.061821699999996
orbit_visualization_period=200359.5922844264
radius=1367
slope_parameter=0.15
tex_map=2007OR10.png
type=scattered disc object

[2297622007uk126]
absolute_magnitude=3.4
albedo=0.15
coord_func=comet_orbit
minor_planet_number=229762
name=2007 UK126
orbit_ArgOfPericenter=346.81738999999999
orbit_AscendingNode=131.22041999999999
orbit_Eccentricity=0.4881453
orbit_Epoch=2457800.5
orbit_Inclination=23.352229999999999
orbit_MeanAnomaly=343.11759999999998
orbit_MeanMotion=0.0015738900000000001
orbit_SemiMajorAxis=73.195991599999999
orbit_visualization_period=229391.7676963096
radius=717
slope_parameter=0.15
tex_map=nomap.png
type=scattered disc object

[243ida]
absolute_magnitude=9.94
albedo=0.262
color_index_bv=0.802
spec_t=S
spec_b=S
coord_func=comet_orbit
minor_planet_number=243
name=Ida
model=243ida_MLfix.obj
orbit_ArgOfPericenter=110.3175
orbit_AscendingNode=324.0286
orbit_Eccentricity=0.041485
orbit_Epoch=2456800.5
orbit_Inclination=1.1322
orbit_MeanAnomaly=236.46
orbit_MeanMotion=0.2035131
orbit_SemiMajorAxis=2.862472
radius=36
slope_parameter=0.15
tex_map=ida.png
type=asteroid

[2778102006fv35]
absolute_magnitude=21.800000000000001
albedo=0.14999999999999999
coord_func=comet_orbit
minor_planet_number=277810
name=2006 FV35
orbit_ArgOfPericenter=170.85283999999999
orbit_AscendingNode=179.50799000000001
orbit_Eccentricity=0.37755549999999999
orbit_Epoch=2457800.5
orbit_Inclination=7.1042300000000003
orbit_MeanAnomaly=169.12423000000001
orbit_MeanMotion=0.98365464000000002
orbit_SemiMajorAxis=1.0013232000000001
radius=1
slope_parameter=0.14999999999999999
tex_map=nomap.png
type=asteroid

[2pallas]
absolute_magnitude=4.13
albedo=0.101
color_index_bv=0.635
spec_t=B
spec_b=B
coord_func=comet_orbit
lighting=true
minor_planet_number=2
name=Pallas
oblateness=0.0
orbit_ArgOfPericenter=309.98943000000003
orbit_AscendingNode=173.08828
orbit_Eccentricity=0.2310236
orbit_Epoch=2457400.5
orbit_Inclination=34.840949999999999
orbit_MeanAnomaly=163.60442
orbit_MeanMotion=0.21351535999999999
orbit_SemiMajorAxis=2.7723621999999999
orbit_visualization_period=1686.537085119438
radius=220
slope_parameter=0.11
tex_map=nomap.png
type=asteroid

[3072612002ms4]
absolute_magnitude=3.7
albedo=0.15
coord_func=comet_orbit
minor_planet_number=307261
name=2002 MS4
orbit_ArgOfPericenter=215.04076000000001
orbit_AscendingNode=215.91234
orbit_Eccentricity=0.1419649
orbit_Epoch=2457800.5
orbit_Inclination=17.669160000000002
orbit_MeanAnomaly=218.17359999999999
orbit_MeanMotion=0.00364445
orbit_SemiMajorAxis=41.819736200000001
orbit_visualization_period=98653.52761933634
radius=625
slope_parameter=0.15
tex_map=nomap.png
type=cubewano

[3119992007ns2]
absolute_magnitude=18.100000000000001
albedo=0.14999999999999999
coord_func=comet_orbit
minor_planet_number=311999
name=2007 NS2
orbit_ArgOfPericenter=176.89688000000001
orbit_AscendingNode=282.48653000000002
orbit_Eccentricity=0.054075600000000001
orbit_Epoch=2457600.5
orbit_Inclination=18.619800000000001
orbit_MeanAnomaly=134.33313000000001
orbit_MeanMotion=0.52402402000000003
orbit_SemiMajorAxis=1.5237086
radius=1
slope_parameter=0.14999999999999999
tex_map=nomap.png
type=asteroid

[3200phaethon]
absolute_magnitude=14.6
albedo=0.1066
spec_t=F
spec_b=B
coord_func=comet_orbit
minor_planet_number=3200
name=Phaethon
orbit_ArgOfPericenter=322.16242
orbit_AscendingNode=265.24124
orbit_Eccentricity=0.88991620000000005
orbit_Epoch=2457800.5
orbit_Inclination=22.248069999999998
orbit_MeanAnomaly=123.90294
orbit_MeanMotion=0.68766252999999999
orbit_SemiMajorAxis=1.2712154
orbit_visualization_period=523.5184875226332
radius=5
slope_parameter=0.15
tex_map=nomap.png
type=asteroid

[3574392004bl86]
absolute_magnitude=19
albedo=0.15
coord_func=comet_orbit
minor_planet_number=357439
name=2004 BL86
orbit_ArgOfPericenter=311.44355000000002
orbit_AscendingNode=126.70717999999999
orbit_Eccentricity=0.4024702
orbit_Epoch=2457800.5
orbit_Inclination=23.774190000000001
orbit_MeanAnomaly=62.219090000000001
orbit_MeanMotion=0.53523620999999999
orbit_SemiMajorAxis=1.5023544
radius=1
slope_parameter=0.15
tex_map=nomap.png
type=asteroid

[367943duende]
absolute_magnitude=24
albedo=0.15
coord_func=comet_orbit
minor_planet_number=367943
name=Duende
orbit_ArgOfPericenter=195.5985
orbit_AscendingNode=146.96284
orbit_Eccentricity=0.089366699999999993
orbit_Epoch=2457800.5
orbit_Inclination=11.60942
orbit_MeanAnomaly=19.795660000000002
orbit_MeanMotion=1.1348277
orbit_SemiMajorAxis=0.91029629999999995
radius=1
slope_parameter=0.15
tex_map=nomap.png
type=asteroid

[3753cruithne]
absolute_magnitude=15.6
albedo=0.365
spec_b=Q
coord_func=comet_orbit
minor_planet_number=3753
name=Cruithne
orbit_ArgOfPericenter=43.82629
orbit_AscendingNode=126.23681999999999
orbit_Eccentricity=0.51490049999999998
orbit_Epoch=2457800.5
orbit_Inclination=19.806439999999998
orbit_MeanAnomaly=59.665280000000003
orbit_MeanMotion=0.98902122999999997
orbit_SemiMajorAxis=0.99769770000000002
orbit_visualization_period=363.9986951530281
radius=3
slope_parameter=0.14999999999999999
tex_map=nomap.png
type=asteroid

[38628huya]
absolute_magnitude=4.9
albedo=0.15
coord_func=comet_orbit
minor_planet_number=38628
name=Huya
orbit_ArgOfPericenter=67.765420000000006
orbit_AscendingNode=169.23410999999999
orbit_Eccentricity=0.28215380000000001
orbit_Epoch=2457800.5
orbit_Inclination=15.46424
orbit_MeanAnomaly=2.9896600000000002
orbit_MeanMotion=0.0039327299999999997
orbit_SemiMajorAxis=39.7502858
orbit_visualization_period=91401.12515814671
radius=360
slope_parameter=0.15
tex_map=nomap.png
type=plutino

[3juno]
absolute_magnitude=5.33
albedo=0.214
color_index_bv=0.824
spec_t=S
spec_b=Sk
coord_func=comet_orbit
lighting=true
minor_planet_number=3
name=Juno
oblateness=0.0
orbit_ArgOfPericenter=248.29396
orbit_AscendingNode=169.86255
orbit_Eccentricity=0.25626559999999998
orbit_Epoch=2457400.5
orbit_Inclination=12.98987
orbit_MeanAnomaly=123.46680000000001
orbit_MeanMotion=0.22594094000000001
orbit_SemiMajorAxis=2.6697633000000001
orbit_visualization_period=1592.375560647722
radius=130
slope_parameter=0.32
tex_map=nomap.png
type=asteroid

[4196242010so16]
absolute_magnitude=20.5
albedo=0.14999999999999999
coord_func=comet_orbit
minor_planet_number=419624
name=2010 SO16
orbit_ArgOfPericenter=108.89584000000001
orbit_AscendingNode=40.405369999999998
orbit_Eccentricity=0.075371499999999994
orbit_Epoch=2457800.5
orbit_Inclination=14.52065
orbit_MeanAnomaly=337.07675999999998
orbit_MeanMotion=0.98169443999999995
orbit_SemiMajorAxis=1.0026557
radius=1
slope_parameter=0.14999999999999999
tex_map=nomap.png
type=asteroid

[433eros]
absolute_magnitude=11.16
albedo=0.25
color=1., 0.849, 0.718
color_index_bv=0.921
spec_t=S
spec_b=S
coord_func=comet_orbit
minor_planet_number=433
name=Eros
orbit_ArgOfPericenter=178.80491000000001
orbit_AscendingNode=304.32652000000002
orbit_Eccentricity=0.22256809999999999
orbit_Epoch=2457800.5
orbit_Inclination=10.827719999999999
orbit_MeanAnomaly=319.31112999999999
orbit_MeanMotion=0.55987624000000002
orbit_SemiMajorAxis=1.4579457
orbit_visualization_period=643.0194421757885
radius=21
slope_parameter=0.46
tex_map=eros.png
type=asteroid

[4692192016hq3]
absolute_magnitude=24.199999999999999
albedo=0.14999999999999999
coord_func=comet_orbit
minor_planet_number=469219
name=2016 HO3
orbit_ArgOfPericenter=307.22764000000001
orbit_AscendingNode=66.513210000000001
orbit_Eccentricity=0.1041435
orbit_Epoch=2457600.5
orbit_Inclination=7.7714400000000001
orbit_MeanAnomaly=297.53217999999998
orbit_MeanMotion=0.98379205000000003
orbit_SemiMajorAxis=1.0012300000000001
radius=1
slope_parameter=0.14999999999999999
tex_map=nomap.png
type=asteroid

